HELIOS 1B               
1 25977U 99064A   20337.95765211  .00000156  00000-0  26537-4 0  9998
2 25977  98.2987 138.9360 0002055 126.2049 233.9354 14.82513442131380
TERRA                   
1 25994U 99068A   20338.17590458  .00000118  00000-0  36168-4 0  9994
2 25994  98.1986  49.9799 0001127  93.6249 318.5386 14.57120897114883
SL-16 R/B               
1 26070U   006B   20337.28881685 -.00000282  00000-0 -11977-3 0  9994
2 26070  71.0014 180.5671 0018525 234.0681 125.8724 14.15470998 76384
MTI                     
1 26102U 00014A   20338.18775558  .00013650  00000-0  18610-3 0  9992
2 26102  97.4797 228.6934 0006547 340.6366  19.4613 15.57619067150760
TITAN 4B R/B            
1 26474U 00047B   20338.20481237  .00000530  00000-0  56621-4 0  9999
2 26474  67.9937 331.1734 0055251   6.7135 353.4734 14.96033709104565
ENVISAT                 
1 27386U 02009A   20337.95018433  .00000048  00000-0  29478-4 0  9991
2 27386  98.1399 336.1648 0001319  90.0689 325.6993 14.38002480982831
IDEFIX & ARIANE 42P R/B 
1 27422U 02021B   20338.16713956  .00000038  00000-0  31122-4 0  9990
2 27422  98.3758 292.4346 0013351  91.9593 268.3119 14.29301021967373
AQUA                    
1 27424U 02022A   20338.12863522  .00000207  00000-0  56015-4 0  9990
2 27424  98.2089 276.2665 0001575 134.8607 286.8202 14.57111858988484
CZ-4B R/B               
1 27432U 02024C   20337.75885124 -.00000017  00000-0  14798-4 0  9993
2 27432  99.0900 342.8307 0051281  62.1346 110.8070 14.14100592957435
MIDORI II (ADEOS-II)    
1 27597U 02056A   20337.55347407  .00000082  00000-0  51119-4 0  9994
2 27597  98.5410 281.0638 0000794 139.6280 220.4960 14.27472048935791
H-2A R/B                
1 27601U 02056E   20338.12830612  .00000114  00000-0  55867-4 0  9999
2 27601  98.2089   5.0777 0073036 134.5780 262.8958 14.31987758938820
CZ-4B R/B               
1 28059U 03049C   20337.80816643  .00000090  00000-0  33566-4 0  9997
2 28059  98.4874 256.2129 0049864 345.2663  14.7076 14.52623395907273
CZ-2C R/B               
1 28222U 04012C   20337.66943571  .00001159  00000-0  72545-4 0  9992
2 28222  97.7008 300.8895 0047030 172.7118 359.9898 15.10584099911388
SL-16 R/B               
1 28353U 04021B   20337.61679798  .00000001  00000-0  25592-4 0  9994
2 28353  70.9996 306.6357 0002866  74.7879 285.3559 14.14233005850910
CZ-4B R/B               
1 28415U 04035C   20337.70074915  .00000218  00000-0  18373-4 0  9997
2 28415  97.5930  17.2449 0052555 137.4817 223.0499 15.06967012888971
CZ-2C R/B               
1 28480U 04046B   20338.12511536  .00000050  00000-0  33294-4 0  9996
2 28480  98.0627 359.8612 0143118  85.6349 316.8708 14.25735771834474
ARIANE 5 R/B            
1 28499U 04049H   20338.18702434  .00000209  00000-0  32801-4 0  9993
2 28499  98.0629  80.5721 0093467  88.0420 332.7464 14.80069022861097
CZ-2D R/B               
1 28738U 05024B   20337.79706463  .00001110  00000-0  67906-4 0  9991
2 28738  97.3722 354.7045 0010940 329.1355  30.9231 15.12183479846849
SUZAKU (ASTRO-EII)      
1 28773U 05025A   20337.78385404  .00002513  00000-0  11661-3 0  9992
2 28773  31.3834   1.9150 0004447 102.8428 257.2716 15.17889900849550
ALOS (DAICHI)           
1 28931U 06002A   20337.96804567  .00000255  00000-0  58735-4 0  9995
2 28931  97.8629 315.6029 0000479  37.2093 322.9144 14.62768169792335
H-2A R/B                
1 28932U 06002B   20337.77188714  .00000669  00000-0  66916-4 0  9993
2 28932  98.3304 337.3898 0089504 130.4506  46.7693 14.92360156806241
AKARI (ASTRO-F)         
1 28939U 06005A   20337.73154946  .00006474  00000-0  16678-3 0  9998
2 28939  98.2468 331.4463 0092545  95.0384 266.1429 15.35287603806709
RESURS-DK 1             
1 29228U 06021A   20338.10733980  .00000396  00000-0  37036-4 0  9990
2 29228  69.9347 118.6367 0006615 229.7955 130.2627 15.02605075798086
GENESIS 1               
1 29252U 06029A   20337.84051687  .00001411  00000-0  78090-4 0  9996
2 29252  64.5218 110.7626 0019245   1.1402 358.9761 15.18344183793668
CZ-4B R/B               
1 29507U 06046C   20337.79477995  .00000611  00000-0  52259-4 0  9996
2 29507  97.7197 358.9503 0047268 322.0024  37.7868 15.00584500770616
CZ-2C R/B               
1 31114U 07010B   20337.79044655  .00000041  00000-0  37504-4 0  9991
2 31114  98.2405 179.2076 0060498 135.6267 224.9782 14.19339154706882
COSMO-SKYMED 1          
1 31598U 07023A   20338.11912070 -.00000210  00000-0 -19835-4 0  9990
2 31598  97.8825 158.8369 0001484  92.3124 267.8252 14.82154359729816
GENESIS 2               
1 31789U 07028A   20337.75878776  .00001434  00000-0  80599-4 0  9992
2 31789  64.5014 152.9736 0033200 226.5558 133.2802 15.17460797740719
COSMOS 2428             
1 31792U 07029A   20338.13656116 -.00000183  00000-0 -73530-4 0  9991
2 31792  70.8952 278.5932 0008462 198.4226 161.6589 14.12248832692685
SL-16 R/B               
1 31793U 07029B   20338.17490095  .00000006  00000-0  28104-4 0  9997
2 31793  70.9773 251.9351 0002405 282.0476 234.5656 14.14443427693580
KORONAS-FOTON           
1 33504U 09003A   20337.78074196  .00001078  00000-0  54526-4 0  9996
2 33504  82.4437  55.3243 0020365  59.4243 300.8995 15.15790192652883
H-2A R/B                
1 38341U 12025E   20338.07280387  .00000365  00000-0  50078-4 0  9998
2 38341  98.5162 144.2227 0056357  51.0842 309.5375 14.84121463462468
CUSAT 2 & FALCON 9 R/B  
1 39271U 13055G   20337.33956592  .00009607  00000-0  22720-3 0  9991
2 39271  80.9667  86.1901 0580547  24.7657 338.0243 14.50095143375049
SL-4 R/B                
1 39679U 14021B   20337.47747612  .00001360  00000-0  82784-4 0  9998
2 39679  51.6172  47.5660 0171500 167.9315 192.5844 15.06649720364356
ALOS-2                  
1 39766U 14029A   20338.05221535 -.00000038  00000-0  17542-5 0  9992
2 39766  97.9232  72.2399 0001478  89.2742 270.8619 14.79470935352629
CZ-2C R/B               
1 40306U 14071B   20337.58941091  .00009148  00000-0  18725-3 0  9996
2 40306  97.3462 285.8602 0012844 274.1975  85.7807 15.46249398339811
SL-27 R/B               
1 40354U 14084B   20337.81107717  .00002306  00000-0  56678-4 0  9997
2 40354  74.7399  39.7232 0036095 145.3942 214.9631 15.40581914334053
YAOGAN 29               
1 41038U 15069A   20338.06994556  .00000087  00000-0  18325-4 0  9995
2 41038  98.0241 325.8928 0002304  75.4557 284.6914 14.80472680271229
ASTRO-H (HITOMI)        
1 41337U 16012A   20337.43533755  .00000571  00000-0  39385-4 0  9993
2 41337  31.0069  24.6416 0012431 291.2552  68.6755 14.98748077262720
HXMT (HUIYAN)           
1 42758U 17034A   20338.07477919  .00000892  00000-0  69113-4 0  9994
2 42758  43.0177 190.8727 0010807   1.6872 135.2233 15.08981785191343
CZ-2C R/B               
1 43521U 18054D   20337.82557686  .00001251  00000-0  69364-4 0  9996
2 43521  35.1527 222.1915 0082174 163.5803 196.7598 15.11216570134631
AEOLUS                  
1 43600U 18066A   20337.98804309  .00051814  00000-0  19880-3 0  9998
2 43600  96.7181 341.8502 0007905  96.2772 263.9401 15.87228986132090
SAOCOM 1A               
1 43641U 18076A   20338.05996558  .00000104  00000-0  19633-4 0  9994
2 43641  97.8856 161.7797 0001374  84.3593 275.7776 14.82159894116570
CREW DRAGON DEMO-1 DEB  
1 44064U 19011B   20337.29284408  .00041922  00000-0  32795-3 0  9999
2 44064  51.6304 179.1016 0001291 303.8491  56.2384 15.71178541 99236
CZ-2F R/B               
1 46390U 20063B   20337.64057170  .00055320  00000-0  26590-3 0  9998
2 46390  50.2038 309.5599 0012184 333.3345  26.7010 15.81963499 14121
2020-063G               
1 46395U 20063G   20337.84771210  .00024471  00000-0  13608-3 0  9992
2 46395  50.2058 309.4835 0010307 324.5510  35.4785 15.79233857 14133
